IRIDIUM 111 [+]         
1 41926U 17003K   17346.30543672  .00000080  00000-0  21397-4 0  9998
2 41926  86.3960 307.5127 0002734  87.3539 272.7970 14.34218755 47726
